NORAD_CAT_ID,OBJECT_NAME,OBJECT_TYPE,EPOCH,MEAN_MOTION,ECCENTRICITY,INCLINATION,RA_OF_ASC_NODE,ARG_OF_PERICENTER,MEAN_ANOMALY,BSTAR,MEAN_MOTION_DOT,MEAN_MOTION_DDOT,TLE_LINE0,TLE_LINE1,TLE_LINE2,SEMIMAJOR_AXIS,PERIOD,APOGEE,PERIGEE,DECAYED
52001.0,STARLINK-3659,PAYLOAD,2022-04-18 04:00:00,15.7327833,0.0001088,53.213,303.7356,107.4889,191.7744,-0.00033171,-0.00047068,0.0,0 STARLINK-3659,1 52001U 22025AX  22108.16667824 -.00047068  00000-0 -33171-3 0  9997,2 52001  53.2130 303.7356 0001088 107.4889 191.7744 15.73278330  7521,6727.672,91.529,350.269,348.805,0.0
52001.0,STARLINK-3659,PAYLOAD,2022-04-18 14:00:01,15.7326514,0.0001127,53.2135,301.6723,118.7646,21.7429,-0.00022795,-0.00032576,0.0,0 STARLINK-3659,1 52001U 22025AX  22108.58334491 -.00032576  00000-0 -22795-3 0  9992,2 52001  53.2135 301.6723 0001127 118.7646  21.7429 15.73265140  3704,6727.709,91.529,350.333,348.816,0.0
52001.0,STARLINK-3659,PAYLOAD,2022-04-18 22:00:00,15.73199485,9.2e-05,53.2138,300.0246,101.9859,127.5028,-7.23e-05,-0.00010752,0.0,0 STARLINK-3659,1 52001U 22025AX  22108.91667824 -.00010752  00000-0 -72300-4 0  9998,2 52001  53.2138 300.0246 0000920 101.9859 127.5028 15.73199485  3708,6727.897,91.533,350.381,349.14300000000014,0.0
52001.0,STARLINK-3659,PAYLOAD,2022-04-19 04:00:00,15.7319644,7.859999999999999e-05,53.2135,298.7862,108.1708,98.0062,0.00016674,0.00022841,0.0,0 STARLINK-3659,1 52001U 22025AX  22109.16667824  .00022841  00000-0  16674-3 0  9997,2 52001  53.2135 298.7862 0000786 108.1708  98.0062 15.73196440  7672,6727.905,91.533,350.2990000000001,349.242,0.0
52001.0,STARLINK-3659,PAYLOAD,2022-04-19 14:00:01,15.73228389,0.0001019,53.2139,296.7233,110.3071,297.0335,-0.00021022,-0.00030052,0.0,0 STARLINK-3659,1 52001U 22025AX  22109.58334491 -.00030052  00000-0 -21022-3 0  9992,2 52001  53.2139 296.7233 0001019 110.3071 297.0335 15.73228389  3706,6727.814,91.532,350.365,348.994,0.0
52001.0,STARLINK-3659,PAYLOAD,2022-04-19 20:00:01,15.73227738,0.0001111,53.2136,295.4877,94.6306,289.4201,-0.00041344,-0.0005831,0.0,0 STARLINK-3659,1 52001U 22025AX  22109.83334491 -.00058310  00000-0 -41344-3 0  9996,2 52001  53.2136 295.4877 0001111  94.6306 289.4201 15.73227738  7787,6727.816,91.532,350.42900000000014,348.934,0.0
52001.0,STARLINK-3659,PAYLOAD,2022-04-20 12:00:00,15.73170237,0.0001036,53.2135,292.1864,110.8032,91.1011,0.00038652,0.00053905,0.0,0 STARLINK-3659,1 52001U 22025AX  22110.50001157  .00053905  00000-0  38652-3 0  9993,2 52001  53.2135 292.1864 0001036 110.8032  91.1011 15.73170237  7888,6727.98,91.535,350.542,349.148,0.0
52001.0,STARLINK-3659,PAYLOAD,2022-04-20 14:00:01,15.73186907,9.91e-05,53.2136,291.7745,108.0097,206.1177,0.00022673,0.00031301,0.0,0 STARLINK-3659,1 52001U 22025AX  22110.58334491  .00031301  00000-0  22673-3 0  9993,2 52001  53.2136 291.7745 0000991 108.0097 206.1177 15.73186907  3700,6727.933000000001,91.534,350.464,349.131,0.0
52001.0,STARLINK-3659,PAYLOAD,2022-04-20 22:00:00,15.73176799,9.84e-05,53.2137,290.1269,90.0607,313.0082,0.00026265,0.00036364,0.0,0 STARLINK-3659,1 52001U 22025AX  22110.91667824  .00036364  00000-0  26265-3 0  9994,2 52001  53.2137 290.1269 0000984  90.0607 313.0082 15.73176799  3682,6727.9609999999975,91.535,350.48800000000006,349.164,0.0
52001.0,STARLINK-3659,PAYLOAD,2022-04-21 04:00:00,15.73195376,0.0001052,53.2148,288.883,93.1942,286.5462,0.00019812,0.00027269,0.0,0 STARLINK-3659,1 52001U 22025AX  22111.16667824  .00027269  00000-0  19812-3 0  9996,2 52001  53.2148 288.8830 0001052  93.1942 286.5462 15.73195376  7991,6727.908,91.533,350.481,349.066,0.0
52001.0,STARLINK-3659,PAYLOAD,2022-04-21 14:00:01,15.73213758,0.0001225,53.2139,286.826,94.7427,126.1695,-0.00013394,-0.00019385,0.0,0 STARLINK-3659,1 52001U 22025AX  22111.58334491 -.00019385  00000-0 -13394-3 0  9994,2 52001  53.2139 286.8260 0001225  94.7427 126.1695 15.73213758  3711,6727.856,91.532,350.545,348.897,0.0
52001.0,STARLINK-3659,PAYLOAD,2022-04-21 22:00:00,15.73213464,0.0001141,53.2132,285.1781,80.7699,229.1161,0.00016463,0.0002256,0.0,0 STARLINK-3659,1 52001U 22025AX  22111.91667824  .00022560  00000-0  16463-3 0  9997,2 52001  53.2132 285.1781 0001141  80.7699 229.1161 15.73213464  3713,6727.857,91.532,350.48900000000015,348.954,0.0
52001.0,STARLINK-3659,PAYLOAD,2022-04-22 04:00:01,15.73225967,9.71e-05,53.2129,283.9393,87.2963,199.3677,0.00026174,0.00036313,0.0,0 STARLINK-3659,1 52001U 22025AX  22112.16668981  .00036313  00000-0  26174-3 0  9991,2 52001  53.2129 283.9393 0000971  87.2963 199.3677 15.73225967  8154,6727.821,91.532,350.339,349.033,0.0
52001.0,STARLINK-3659,PAYLOAD,2022-04-22 12:00:00,15.73251384,0.0001074,53.2132,282.2891,94.8241,280.7243,-0.00025009,-0.00035646,0.0,0 STARLINK-3659,1 52001U 22025AX  22112.50001157 -.00035646  00000-0 -25009-3 0  9991,2 52001  53.2132 282.2891 0001074  94.8241 280.7243 15.73251384  8203,6727.749,91.53,350.336,348.891,0.0
52001.0,STARLINK-3659,PAYLOAD,2022-04-22 14:00:01,15.73254525,0.0001078,53.2132,281.8772,91.0429,36.7509,-0.00044742,-0.00063088,0.0,0 STARLINK-3659,1 52001U 22025AX  22112.58334491 -.00063088  00000-0 -44742-3 0  9995,2 52001  53.2132 281.8772 0001078  91.0429  36.7509 15.73254525  3701,6727.74,91.53,350.33,348.879,0.0
52001.0,STARLINK-3659,PAYLOAD,2022-04-23 12:00:00,15.73154001,9.940000000000004e-05,53.2133,277.3405,84.3553,197.9895,0.00026688,0.00036926,0.0,0 STARLINK-3659,1 52001U 22025AX  22113.50001157  .00036926  00000-0  26688-3 0  9996,2 52001  53.2133 277.3405 0000994  84.3553 197.9895 15.73154001  8367,6728.026,91.536,350.56,349.223,0.0
52001.0,STARLINK-3659,PAYLOAD,2022-04-23 14:00:01,15.73169824,9.55e-05,53.2132,276.9287,77.8896,316.6794,0.00029087,0.00040345,0.0,0 STARLINK-3659,1 52001U 22025AX  22113.58334491  .00040345  00000-0  29087-3 0  9990,2 52001  53.2132 276.9287 0000955  77.8896 316.6794 15.73169824  3668,6727.981,91.535,350.48900000000015,349.204,0.0
52001.0,STARLINK-3659,PAYLOAD,2022-04-24 12:00:02,15.73263086,0.0001187,53.2127,272.3918,80.2993,108.882,-0.00026477,-0.00037712,0.0,0 STARLINK-3659,1 52001U 22025AX  22114.50002315 -.00037712  00000-0 -26477-3 0  9996,2 52001  53.2127 272.3918 0001187  80.2993 108.8820 15.73263086  8512,6727.715,91.53,350.379,348.782,0.0
52001.0,STARLINK-3659,PAYLOAD,2022-04-24 14:00:01,15.73266119,0.000119,53.2126,271.98,75.4597,225.9035,-0.00041871,-0.00059137,0.0,0 STARLINK-3659,1 52001U 22025AX  22114.58334491 -.00059137  00000-0 -41871-3 0  9997,2 52001  53.2126 271.9800 0001190  75.4597 225.9035 15.73266119  3701,6727.706999999999,91.529,350.372,348.771,0.0
52001.0,STARLINK-3659,PAYLOAD,2022-04-25 04:00:00,15.73196476,0.0001128,53.2127,269.0926,67.9157,299.1392,-0.00029264,-0.00041481,0.0,0 STARLINK-3659,1 52001U 22025AX  22115.16667824 -.00041481  00000-0 -29264-3 0  9996,2 52001  53.2127 269.0926 0001128  67.9157 299.1392 15.73196476  8621,6727.905,91.533,350.529,349.011,0.0
52001.0,STARLINK-3659,PAYLOAD,2022-04-25 14:00:01,15.73174374,0.0001206,53.2127,267.0311,63.4156,144.7597,7.078600000000001e-05,9.315e-05,0.0,0 STARLINK-3659,1 52001U 22025AX  22115.58334491  .00009315  00000-0  70786-4 0  9997,2 52001  53.2127 267.0311 0001206  63.4156 144.7597 15.73174374  3725,6727.968000000003,91.535,350.645,349.022,0.0
52001.0,STARLINK-3659,PAYLOAD,2022-04-25 20:00:01,15.73166488,0.0001375,53.2124,265.795,54.7352,130.129,0.00024385,0.00033691,0.0,0 STARLINK-3659,1 52001U 22025AX  22115.83334491  .00033691  00000-0  24385-3 0  9992,2 52001  53.2124 265.7950 0001375  54.7352 130.1290 15.73166488  8725,6727.991,91.535,350.781,348.931,0.0
52001.0,STARLINK-3659,PAYLOAD,2022-04-25 22:00:00,15.73158877,0.0001375,53.212,265.3824,54.6712,242.4213,0.00042851,0.00059842,0.0,0 STARLINK-3659,1 52001U 22025AX  22115.91667824  .00059842  00000-0  42851-3 0  9994,2 52001  53.2120 265.3824 0001375  54.6712 242.4213 15.73158877  3704,6728.012,91.536,350.80300000000005,348.952,0.0
52001.0,STARLINK-3659,PAYLOAD,2022-04-26 14:00:01,15.73261702,0.0001408,53.2122,262.082,61.2334,53.7887,-0.00040116,-0.00056691,0.0,0 STARLINK-3659,1 52001U 22025AX  22116.58335648 -.00056691  00000-0 -40116-3 0  9997,2 52001  53.2122 262.0820 0001408  61.2334  53.7887 15.73261702  3754,6727.719,91.53,350.532,348.63699999999994,0.0
52001.0,STARLINK-3659,PAYLOAD,2022-04-26 22:00:00,15.73272467,0.0001332,53.2136,260.4279,53.3013,150.6281,-0.0011721,-0.00162483,0.0,0 STARLINK-3659,1 52001U 22025AX  22116.91667824 -.00162483  00000-0 -11721-2 0  9994,2 52001  53.2136 260.4279 0001332  53.3013 150.6281 15.73272467  8896,6727.689,91.529,350.45,348.657,0.0
52001.0,STARLINK-3659,PAYLOAD,2022-04-27 04:00:00,15.73148518,0.0001142,53.2127,259.1941,48.0072,132.6238,0.00057644,0.00080882,0.0,0 STARLINK-3659,1 52001U 22025AX  22117.16667824  .00080882  00000-0  57644-3 0  9997,2 52001  53.2127 259.1941 0001142  48.0072 132.6238 15.73148518  8938,6728.042,91.536,350.675,349.139,0.0
52001.0,STARLINK-3659,PAYLOAD,2022-04-27 12:00:00,15.73246436,0.0001262999999999,53.2128,257.5448,50.4543,219.0563,-0.00047699,-0.00067163,0.0,0 STARLINK-3659,1 52001U 22025AX  22117.50001157 -.00067163  00000-0 -47699-3 0  9994,2 52001  53.2128 257.5448 0001263  50.4543 219.0563 15.73246436  8992,6727.763000000001,91.53,350.478,348.778,0.0
52001.0,STARLINK-3659,PAYLOAD,2022-04-27 14:00:01,15.73244334,0.0001359,53.2127,257.1329,46.985,334.8316,-0.00057975,-0.00081356,0.0,0 STARLINK-3659,1 52001U 22025AX  22117.58335648 -.00081356  00000-0 -57975-3 0  9995,2 52001  53.2127 257.1329 0001359  46.9850 334.8316 15.73244334  3691,6727.769,91.531,350.548,348.719,0.0
52001.0,STARLINK-3659,PAYLOAD,2022-04-27 20:00:01,15.73198804,0.0001473,53.2124,255.8966,40.6734,317.8144,5.2114e-05,6.699e-05,0.0,0 STARLINK-3659,1 52001U 22025AX  22117.83334491  .00006699  00000-0  52114-4 0  9994,2 52001  53.2124 255.8966 0001473  40.6734 317.8144 15.73198804  9044,6727.899,91.533,350.755,348.773,0.0
